[
  {
    "OBJECT_NAME": "STARLINK-34839",
    "OBJECT_ID": "25212AD",
    "EPOCH": "2025-11-10T23:55:53.575104",
    "MEAN_MOTION": 15.30214897,
    "ECCENTRICITY": 2.06e-05,
    "INCLINATION": 53.1598,
    "RA_OF_ASC_NODE": 176.8093,
    "ARG_OF_PERICENTER": 268.0943,
    "MEAN_ANOMALY": 92.0034,
    "EPHEMERIS_TYPE": 0,
    "CLASSIFICATION_TYPE": "U",
    "NORAD_CAT_ID": 65703,
    "ELEMENT_SET_NO": 999,
    "REV_AT_EPOCH": 907,
    "BSTAR": 0.0012324,
    "MEAN_MOTION_DOT": 0.00036335,
    "MEAN_MOTION_DDOT": 0.0,
    "TLE_LINE1": "1 65703U 25212AD  25314.99714786  .00036335  00000+0  12324-2 0  9992",
    "TLE_LINE2": "2 65703  53.1598 176.8093 0000206 268.0943  92.0034 15.30214897  9072",
    "COMMENT": "Grouped by shell and plane from TLE"
  }
]